1 45571U 20025AS  22365.05041225  .00012871  00000-0  88094-3 0  9999
2 45571  53.0546 264.8803 0001785  55.1573 304.9584 15.06419124149375
1 45571U 20025AS  22365.44848760  .00011406  00000-0  78282-3 0  9992
2 45571  53.0543 263.0932 0001787  55.5927 304.5231 15.06426164150048
1 45571U 20025AS  23001.11195533 -.00004137  00000-0 -25898-3 0  9997
2 45571  53.0550 260.1153 0001836  57.7616 302.3551 15.06402697149531
1 45571U 20025AS  23001.44369299 -.00007309  00000-0 -47239-3 0  9992
2 45571  53.0545 258.6244 0001770  54.9658 305.1497 15.06388694150194
1 45571U 20025AS  23001.44369299 -.00007309  00000-0 -47239-3 0  9992
2 45571  53.0545 258.6244 0001770  54.9658 305.1497 15.06388694149585
1 45571U 20025AS  23001.84178358 -.00005332  00000-0 -33944-3 0  9992
2 45571  53.0550 256.8392 0001753  63.8533 296.2637 15.06383338150259
1 45571U 20025AS  23001.97448042 -.00005678  00000-0 -36276-3 0  9990
2 45571  53.0547 256.2433 0001750  59.5549 300.5613 15.06379122150272
1 45571U 20025AS  23001.97448042 -.00005678  00000-0 -36276-3 0  9990
2 45571  53.0547 256.2433 0001750  59.5549 300.5613 15.06379122149663
1 45571U 20025AS  23002.77065142  .00002095  00000-0  15960-3 0  9990
2 45571  53.0545 252.6690 0001661  59.0903 301.0249 15.06384008150398
1 45571U 20025AS  23002.77065142  .00002095  00000-0  15960-3 0  9990
2 45571  53.0545 252.6690 0001661  59.0903 301.0249 15.06384008149789
1 45571U 20025AS  23003.63316188  .00008858  00000-0  61278-3 0  9991
2 45571  53.0546 248.7980 0001683  56.2820 303.8329 15.06402883150524
1 45571U 20025AS  23004.03124473  .00004303  00000-0  30758-3 0  9990
2 45571  53.0546 247.0106 0001692  52.3990 307.7152 15.06400947150583
1 45571U 20025AS  23004.03124473  .00004303  00000-0  30758-3 0  9990
2 45571  53.0546 247.0106 0001692  52.3990 307.7152 15.06400947149974
1 45571U 20025AS  23004.96009185  .00014561  00000-0  99375-3 0  9991
2 45571  53.0539 242.8409 0001570  56.4324 303.6815 15.06423918150118
1 45571U 20025AS  23005.35817333  .00000833  00000-0  74802-4 0  9993
2 45571  53.0537 241.0538 0001509  66.6016 293.5132 15.06406077150782
1 45571U 20025AS  23005.35817333  .00000833  00000-0  74802-4 0  9993
2 45571  53.0537 241.0538 0001509  66.6016 293.5132 15.06406077150175
1 45571U 20025AS  23005.75626177 -.00007087  00000-0 -45750-3 0  9990
2 45571  53.0527 239.2661 0001904  73.1985 286.9212 15.06383789150840
1 45571U 20025AS  23005.75626177 -.00007087  00000-0 -45750-3 0  9990
2 45571  53.0527 239.2661 0001904  73.1985 286.9212 15.06383789150233
1 45571U 20025AS  23006.35338853  .00011100  00000-0  76311-3 0  9994
2 45571  53.0531 236.5862 0001515  69.6941 290.4210 15.06390072150322
1 45571U 20025AS  23006.75147079  .00011174  00000-0  76790-3 0  9998
2 45571  53.0533 234.7987 0001453  69.2529 290.8616 15.06396610150992
1 45571U 20025AS  23007.01685691  .00012335  00000-0  84540-3 0  9997
2 45571  53.0531 233.6078 0001422  68.9178 291.1963 15.06405217151030
1 45571U 20025AS  23007.74667089  .00005554  00000-0  39140-3 0  9999
2 45571  53.0526 230.3324 0001477  67.8792 292.2354 15.06405470150533
1 45571U 20025AS  23007.87936401  .00006278  00000-0  43989-3 0  9990
2 45571  53.0528 229.7366 0001466  68.0907 292.0237 15.06407661151164
1 45571U 20025AS  23008.34378968  .00004562  00000-0  32488-3 0  9997
2 45571  53.0528 227.6516 0001492  68.0068 292.1079 15.06408210151239
1 45571U 20025AS  23008.74187237  .00000739  00000-0  68524-4 0  9991
2 45571  53.0525 225.8649 0001576  69.2996 290.8161 15.06400483151296
1 45571U 20025AS  23008.74187237  .00000739  00000-0  68524-4 0  9991
2 45571  53.0525 225.8649 0001576  69.2996 290.8161 15.06400483150688
1 45571U 20025AS  23009.60438102  .00000580  00000-0  57839-4 0  9998
2 45571  53.0529 221.9920 0001553  77.8175 282.2987 15.06399977151429
1 45571U 20025AS  23009.86976773  .00000560  00000-0  56463-4 0  9997
2 45571  53.0531 220.8002 0001599  79.6121 280.5048 15.06400379151464
1 45571U 20025AS  23009.86976773  .00000560  00000-0  56463-4 0  9997
2 45571  53.0531 220.8002 0001599  79.6121 280.5048 15.06400379150856
1 45571U 20025AS  23010.53323861  .00000892  00000-0  78798-4 0  9990
2 45571  53.0541 217.8220 0001521  80.8368 279.2793 15.06396811151563
1 45571U 20025AS  23010.66593275  .00000760  00000-0  69910-4 0  9992
2 45571  53.0542 217.2263 0001523  80.7113 279.4048 15.06396400151585
1 45571U 20025AS  23010.66593275  .00000760  00000-0  69910-4 0  9992
2 45571  53.0542 217.2263 0001523  80.7113 279.4048 15.06396400150977
1 45571U 20025AS  23011.32939931  .00001611  00000-0  12701-3 0  9990
2 45571  53.0542 214.2483 0001473  81.9004 278.2152 15.06399266151689
1 45571U 20025AS  23011.66113470  .00001299  00000-0  10608-3 0  9995
2 45571  53.0542 212.7591 0001461  82.2391 277.8764 15.06398272151738
1 45571U 20025AS  23011.92651944  .00001748  00000-0  13619-3 0  9991
2 45571  53.0541 211.5678 0001473  82.2122 277.9035 15.06402211151163
1 45571U 20025AS  23012.65633941  .00000751  00000-0  69310-4 0  9992
2 45571  53.0539 208.2908 0001465  86.6902 273.4255 15.06395983151885
1 45571U 20025AS  23012.65633941  .00000751  00000-0  69310-4 0  9992
2 45571  53.0539 208.2908 0001465  86.6902 273.4255 15.06395983151278
1 45571U 20025AS  23013.51884855  .00000575  00000-0  57518-4 0  9991
2 45571  53.0538 204.4188 0001452  86.5276 273.5879 15.06397969152016
1 45571U 20025AS  23013.91692984  .00000397  00000-0  45563-4 0  9994
2 45571  53.0540 202.6307 0001632  86.5282 273.5893 15.06399193152072
1 45571U 20025AS  23013.91692984  .00000397  00000-0  45563-4 0  9994
2 45571  53.0540 202.6307 0001632  86.5282 273.5893 15.06399193151464
1 45571U 20025AS  23015.31021209  .00001185  00000-0  98417-4 0  9998
2 45571  53.0538 196.3766 0001408  86.7377 273.3773 15.06398078151676
1 45571U 20025AS  23015.57560104  .00000659  00000-0  63117-4 0  9992
2 45571  53.0542 195.1857 0001326  84.5054 275.6087 15.06396413152323
1 45571U 20025AS  23015.77463855  .00000888  00000-0  78469-4 0  9999
2 45571  53.0545 194.2923 0001242  84.4709 275.6422 15.06399770152358
1 45571U 20025AS  23016.57080358 -.00000117  00000-0  11022-4 0  9999
2 45571  53.0545 190.7184 0001300  85.2708 274.8429 15.06398061152474
1 45571U 20025AS  23016.76984159  .00000374  00000-0  44027-4 0  9997
2 45571  53.0546 189.8248 0001266  85.1346 274.9787 15.06400152152500
1 45571U 20025AS  23016.76984159  .00000374  00000-0  44027-4 0  9997
2 45571  53.0546 189.8248 0001266  85.1346 274.9787 15.06400152151891
1 45571U 20025AS  23017.49966497 -.00000010  00000-0  18217-4 0  9993
2 45571  53.0547 186.5489 0001257  86.0354 274.0779 15.06390031152619
1 45571U 20025AS  23017.49966497 -.00000010  00000-0  18217-4 0  9993
2 45571  53.0547 186.5489 0001257  86.0354 274.0779 15.06390031152002
1 45571U 20025AS  23017.89774113  .00000420  00000-0  47081-4 0  9994
2 45571  53.0547 184.7615 0001262  87.0679 273.0454 15.06397423152674
1 45571U 20025AS  23017.89774113  .00000420  00000-0  47081-4 0  9994
2 45571  53.0547 184.7615 0001262  87.0679 273.0454 15.06397423152067
1 45571U 20025AS  23018.16312911  .00000413  00000-0  46618-4 0  9996
2 45571  53.0546 183.5701 0001257  86.5852 273.5280 15.06397766152714
1 45571U 20025AS  23018.76024554  .00001542  00000-0  12235-3 0  9996
2 45571  53.0550 180.8892 0001202  92.6258 267.4869 15.06402673152807
1 45571U 20025AS  23019.49007265  .00000083  00000-0  24461-4 0  9991
2 45571  53.0540 177.6137 0001478  80.9204 279.1952 15.06392003152918
1 45571U 20025AS  23019.49007265  .00000083  00000-0  24461-4 0  9991
2 45571  53.0540 177.6137 0001478  80.9204 279.1952 15.06392003152301
1 45571U 20025AS  23020.15351681  .00002801  00000-0  20675-3 0  9992
2 45571  53.0545 174.6339 0000832  99.6755 260.4328 15.06415127152402
1 45571U 20025AS  23020.41892337 -.00000183  00000-0  66027-5 0  9994
2 45571  53.0548 173.4422 0001416  96.9441 263.1709 15.06394473153051
1 45571U 20025AS  23020.41892337 -.00000183  00000-0  66027-5 0  9994
2 45571  53.0548 173.4422 0001416  96.9441 263.1709 15.06394473152443
1 45571U 20025AS  23021.67950707  .00003564  00000-0  25799-3 0  9993
2 45571  53.0553 167.7851 0000961  86.7099 273.4000 15.06401439152631
1 45571U 20025AS  23022.40933217  .00002091  00000-0  15927-3 0  9998
2 45571  53.0548 164.5076 0001155  92.3413 267.7708 15.06389337152743
1 45571U 20025AS  23023.73626507  .00001877  00000-0  14486-3 0  9996
2 45571  53.0543 158.5520 0001418  75.9537 284.1610 15.06407496152945
1 45571U 20025AS  23024.06800430 -.00000771  00000-0 -32896-4 0  9992
2 45571  53.0529 157.0636 0001507  77.0325 283.0832 15.06396163152995
1 45571U 20025AS  23025.39494500 -.00000045  00000-0  15876-4 0  9998
2 45571  53.0552 151.1069 0001490  80.1431 279.9726 15.06397496153199
1 45571U 20025AS  23025.52763698  .00000861  00000-0  76699-4 0  9995
2 45571  53.0560 150.5118 0001507  81.9507 278.1653 15.06401184153828
1 45571U 20025AS  23025.66032758  .00001853  00000-0  14323-3 0  9993
2 45571  53.0549 149.9149 0001382  76.8564 283.2580 15.06406175153841
1 45571U 20025AS  23025.66032758  .00001853  00000-0  14323-3 0  9993
2 45571  53.0549 149.9149 0001382  76.8564 283.2580 15.06406175153234
1 45571U 20025AS  23026.32379962  .00000465  00000-0  50141-4 0  9995
2 45571  53.0551 146.9402 0001594  83.0873 277.0297 15.06400289153331
1 45571U 20025AS  23026.58918930  .00002870  00000-0  21146-3 0  9991
2 45571  53.0551 145.7477 0001166  73.2623 286.8494 15.06397918153981
1 45571U 20025AS  23027.58438842  .00000626  00000-0  60916-4 0  9997
2 45571  53.0552 141.2780 0001160  80.6049 279.5071 15.06400530154131
1 45571U 20025AS  23027.65073262  .00000530  00000-0  54479-4 0  9997
2 45571  53.0552 140.9782 0001783 109.3140 250.8042 15.06403287154144
1 45571U 20025AS  23027.65073262  .00000530  00000-0  54479-4 0  9997
2 45571  53.0552 140.9782 0001783 109.3140 250.8042 15.06403287153536
1 45571U 20025AS  23028.51324738  .00000915  00000-0  80303-4 0  9992
2 45571  53.0551 137.1061 0001271 104.5045 255.6085 15.06392412153667
1 45571U 20025AS  23028.57959228 -.00000223  00000-0  39224-5 0  9996
2 45571  53.0551 136.8090 0001380  98.9023 261.2123 15.06399080154281
1 45571U 20025AS  23028.71228513 -.00000223  00000-0  38969-5 0  9993
2 45571  53.0550 136.2128 0001367 105.6935 254.4205 15.06399464154303
1 45571U 20025AS  23029.70748653  .00000558  00000-0  56372-4 0  9992
2 45571  53.0563 131.7474 0001455  79.8056 280.3097 15.06403112154454
1 45571U 20025AS  23029.70748653  .00000558  00000-0  56372-4 0  9992
2 45571  53.0563 131.7474 0001455  79.8056 280.3097 15.06403112153846
1 45571U 20025AS  23029.97287999 -.00000335  00000-0 -35809-5 0  9990
2 45571  53.0571 130.5540 0001470  77.3843 282.7310 15.06396020153887
1 45571U 20025AS  23030.43731341 -.00000528  00000-0 -16586-4 0  9992
2 45571  53.0561 128.4705 0001260  97.8731 262.2402 15.06390646153956
1 45571U 20025AS  23030.50365959 -.00000414  00000-0 -88822-5 0  9995
2 45571  53.0562 128.1727 0001269  98.1701 261.9432 15.06391632154572
1 45571U 20025AS  23030.63635413 -.00000438  00000-0 -10504-4 0  9991
2 45571  53.0560 127.5771 0001271  96.0761 264.0373 15.06391351154596
1 45571U 20025AS  23031.49885923  .00000962  00000-0  83467-4 0  9997
2 45571  53.0568 123.7078 0000974  83.7474 276.3626 15.06397425154725
1 45571U 20025AS  23031.63155192  .00001098  00000-0  92566-4 0  9992
2 45571  53.0566 123.1116 0001160  91.9851 268.1271 15.06398883154744
1 45571U 20025AS  23031.63155192  .00001098  00000-0  92566-4 0  9992
2 45571  53.0566 123.1116 0001160  91.9851 268.1271 15.06398883154137
